PROBA-1                 
1 26958U 01049B   17309.49114821 -.00000459  00000-0 -34443-4 0  9996
2 26958  97.5826 271.7218 0072028 214.1778 145.4788 14.95132608872638
BIRD 2                  
1 26959U 01049C   17309.48024813  .00002478  00000-0  75508-4 0  9995
2 26959  97.8048 264.4611 0007217 236.7040 123.3511 15.35023916887994
CUTE-1 (CO-55)          
1 27844U 03031E   17309.00723400  .00000084  00000-0  57577-4 0  9995
2 27844  98.6898 315.9669 0008864 303.8474  56.1859 14.22072262744332
CUBESAT XI-IV (CO-57)   
1 27848U 03031J   17308.90458654  .00000062  00000-0  48349-4 0  9996
2 27848  98.6989 316.1826 0008881 314.9772  45.0684 14.21682240744164
GENESIS 1               
1 29252U 06029A   17308.90865613  .00000632  00000-0  41877-4 0  9996
2 29252  64.5042 185.8435 0030370 315.0614  44.8050 15.17033693623099
FALCONSAT-3             
1 30776U 07006E   17309.18764727  .00004240  00000-0  12997-3 0  9999
2 30776  35.4360 251.5192 0003144 185.6313 174.4378 15.33317438589903
GENESIS 2               
1 31789U 07028A   17309.28512243  .00000619  00000-0  42110-4 0  9990
2 31789  64.5045 223.0613 0013908 219.3388 140.6725 15.16297322570292
APRIZESAT 4             
1 35684U 09041D   17308.82259920  .00000143  00000-0  26500-4 0  9991
2 35684  98.1437 252.6828 0047491   6.2158  51.0731 14.79077451445926
APRIZESAT 3             
1 35686U 09041F   17309.52220360  .00000162  00000-0  24279-4 0  9999
2 35686  98.2799 315.0545 0071832 274.5839  84.7173 14.87138797448197
PROBA-2                 
1 36037U 09059B   17309.11065258  .00000037  00000-0  19712-4 0  9994
2 36037  98.2468 140.3119 0012193 262.2161  97.7650 14.53017314424590
APRIZESAT 5             
1 37792U 11044E   17309.39622629  .00000105  00000-0  23729-4 0  9990
2 37792  98.3579  96.8816 0057581 322.7767  36.9455 14.75181486334680
APRIZESAT 6             
1 37793U 11044F   17308.84581182  .00000100  00000-0  24218-4 0  9997
2 37793  98.3085  80.1706 0046751 350.2415 131.6929 14.72256428333819
TET-1                   
1 38710U 12039D   17308.92426415  .00004697  00000-0  97238-4 0  9995
2 38710  97.5613 270.8008 0003457  76.4319 283.7315 15.46306421295980
STSAT-2C                
1 39068U 13003A   17308.93384768  .00061030  23648-6  50332-3 0  9995
2 39068  80.1934 287.5231 0318530 347.8267  11.5384 15.25678342253890
PROBA-V                 
1 39159U 13021A   17309.48203793 -.00000028  00000-0  67322-5 0  9996
2 39159  98.5857  22.1360 0003688 339.5292  20.5741 14.22950461233699
CUSAT 1                 
1 39266U 13055B   17309.17474901  .00006257  00000-0  17453-3 0  9996
2 39266  80.9889 221.5831 0656503 177.0032 183.5415 14.30550021212145
STPSAT-3                
1 39380U 13064A   17309.47164624  .00002044  00000-0  64813-4 0  9997
2 39380  40.5017  11.4603 0002750 105.6312 254.4805 15.35208066221491
APRIZESAT 7             
1 39416U 13066A   17309.18148185  .00000161  00000-0  25350-4 0  9992
2 39416  97.6162 353.0146 0042142 147.8861 212.4934 14.83746798214139
APRIZESAT 8             
1 39425U 13066K   17309.15614959  .00000121  00000-0  21772-4 0  9996
2 39425  97.6118 346.4367 0052485 163.3767 196.9182 14.80987314213767
BUGSAT-1 (TITA)         
1 40014U 14033E   17309.55031682  .00000495  00000-0  50680-4 0  9991
2 40014  97.9585 236.3498 0030887 214.8307 145.0903 14.94891910184326
SAUDISAT 4              
1 40016U 14033G   17308.72130847  .00000072  00000-0  18011-4 0  9997
2 40016  97.8415 192.0499 0048023 192.8665 167.1323 14.75148076181876
TABLETSAT-AURORA        
1 40017U 14033H   17309.49820175  .00000240  00000-0  28811-4 0  9999
2 40017  97.9448 231.3292 0022569 217.7596 142.2040 14.92928417184056
APRIZESAT 9             
1 40018U 14033J   17309.55093124  .00000074  00000-0  20066-4 0  9992
2 40018  97.8209 181.2435 0070641 217.3991 142.2288 14.69835044181241
APRIZESAT 10            
1 40019U 14033K   17309.54080245  .00000060  00000-0  18886-4 0  9994
2 40019  97.8137 175.0510 0083219 233.5269 125.8248 14.66904221180939
AISAT                   
1 40054U 14034B   17309.37925328  .00000673  00000-0  10252-3 0  9993
2 40054  98.1940  51.1411 0011886 316.3646  43.6623 14.77256014180563
CANX-4                  
1 40055U 14034C   17309.30798199  .00000173  00000-0  33829-4 0  9992
2 40055  98.1887  47.8945 0013624 336.1516  23.9059 14.74659938180345
CANX-5                  
1 40056U 14034D   17309.51292423  .00000170  00000-0  33437-4 0  9997
2 40056  98.1888  48.0981 0013638 335.6216  24.4345 14.74657152180379
TDS 1                   
1 40076U 14037H   17309.48333146  .00000089  00000-0  18727-4 0  9990
2 40076  98.3446  66.2169 0005979 354.2345   5.8801 14.81368966179943
TIANTUO 2               
1 40144U 14053B   17309.49809175  .00001373  00000-0  44733-4 0  9998
2 40144  97.3161  30.4748 0013089 119.4775   7.6494 15.33475781176641
TECHNOSAT               
1 42829U 17042E   17309.51566033  .00000254  00000-0  31340-4 0  9994
2 42829  97.6072 215.0875 0013223 218.8627 141.1642 14.90709500 17014
FLYING LAPTOP           
1 42831U 17042G   17308.90948098  .00000290  00000-0  34952-4 0  9996
2 42831  97.6074 214.5110 0013052 221.7059 138.3166 14.90737203 16915
